{
  "type": "FeatureCollection",
  "features": [
    {
      "type": "Feature",
      "properties": {
        "norad_id": 34464,
        "name": "COSMOS 2251 DEB",
        "group": "cosmos-2251-debris",
        "lat": 30.429142396103412,
        "lon": -119.59613121295595,
        "alt_km": 483.39172715946734,
        "timestamp": "2025-12-16T13:52:37.916570+00:00",
        "meta_object_name": "COSMOS 2251 DEB",
        "meta_object_id": "1993-036TH",
        "meta_epoch": "2025-12-15T07:21:51.930720",
        "meta_mean_motion": 15.27464438,
        "meta_eccentricity": 0.00156686,
        "meta_inclination": 73.9901,
        "meta_ra_of_asc_node": 72.8157,
        "meta_arg_of_pericenter": 253.4505,
        "meta_mean_anomaly": 106.4975,
        "meta_ephemeris_type": 0,
        "meta_classification_type": "U",
        "meta_norad_cat_id": 34464,
        "meta_element_set_no": 999,
        "meta_rev_at_epoch": 89879,
        "meta_bstar": 0.0018952155,
        "meta_mean_motion_dot": 0.00051444,
        "meta_mean_motion_ddot": 0,
        "tle_line1": "1 34464U 93036TH  25349.30685105  .00051444  00000+0  18952-2 0  9997",
        "tle_line2": "2 34464  73.9901  72.8157 0015668 253.4505 106.4975 15.27464438898799"
      },
      "geometry": {
        "type": "Point",
        "coordinates": [
          -119.59613121295595,
          30.429142396103412
        ]
      }
    },
    {
      "type": "Feature",
      "properties": {
        "norad_id": 34468,
        "name": "COSMOS 2251 DEB",
        "group": "cosmos-2251-debris",
        "lat": -7.24226271129267,
        "lon": 107.92557867202262,
        "alt_km": 744.4796135119477,
        "timestamp": "2025-12-16T13:52:37.916579+00:00",
        "meta_object_name": "COSMOS 2251 DEB",
        "meta_object_id": "1993-036TM",
        "meta_epoch": "2025-12-15T18:00:33.766848",
        "meta_mean_motion": 14.47632709,
        "meta_eccentricity": 0.00763337,
        "meta_inclination": 74.0127,
        "meta_ra_of_asc_node": 111.5638,
        "meta_arg_of_pericenter": 255.8744,
        "meta_mean_anomaly": 103.3923,
        "meta_ephemeris_type": 0,
        "meta_classification_type": "U",
        "meta_norad_cat_id": 34468,
        "meta_element_set_no": 999,
        "meta_rev_at_epoch": 88505,
        "meta_bstar": 0.00034358221,
        "meta_mean_motion_dot": 1.284e-05,
        "meta_mean_motion_ddot": 0,
        "tle_line1": "1 34468U 93036TM  25349.75039082  .00001284  00000+0  34358-3 0  9993",
        "tle_line2": "2 34468  74.0127 111.5638 0076333 255.8744 103.3923 14.47632709885050"
      },
      "geometry": {
        "type": "Point",
        "coordinates": [
          107.92557867202262,
          -7.24226271129267
        ]
      }
    },
    {
      "type": "Feature",
      "properties": {
        "norad_id": 34472,
        "name": "COSMOS 2251 DEB",
        "group": "cosmos-2251-debris",
        "lat": 27.94067374505774,
        "lon": 100.53655897169803,
        "alt_km": 1232.279279499825,
        "timestamp": "2025-12-16T13:52:37.916601+00:00",
        "meta_object_name": "COSMOS 2251 DEB",
        "meta_object_id": "1993-036TR",
        "meta_epoch": "2025-12-15T16:42:06.945408",
        "meta_mean_motion": 13.70333959,
        "meta_eccentricity": 0.03278684,
        "meta_inclination": 74.0841,
        "meta_ra_of_asc_node": 93.2828,
        "meta_arg_of_pericenter": 223.6385,
        "meta_mean_anomaly": 133.8382,
        "meta_ephemeris_type": 0,
        "meta_classification_type": "U",
        "meta_norad_cat_id": 34472,
        "meta_element_set_no": 999,
        "meta_rev_at_epoch": 83767,
        "meta_bstar": 0.00064255425,
        "meta_mean_motion_dot": 8.06e-06,
        "meta_mean_motion_ddot": 0,
        "tle_line1": "1 34472U 93036TR  25349.69591372  .00000806  00000+0  64255-3 0  9994",
        "tle_line2": "2 34472  74.0841  93.2828 0327868 223.6385 133.8382 13.70333959837673"
      },
      "geometry": {
        "type": "Point",
        "coordinates": [
          100.53655897169803,
          27.94067374505774
        ]
      }
    },
    {
      "type": "Feature",
      "properties": {
        "norad_id": 34474,
        "name": "COSMOS 2251 DEB",
        "group": "cosmos-2251-debris",
        "lat": -57.7285591047657,
        "lon": -67.39891586350761,
        "alt_km": 885.1692419807159,
        "timestamp": "2025-12-16T13:52:37.916612+00:00",
        "meta_object_name": "COSMOS 2251 DEB",
        "meta_object_id": "1993-036TT",
        "meta_epoch": "2025-12-15T21:12:29.589120",
        "meta_mean_motion": 14.0643619,
        "meta_eccentricity": 0.0198614,
        "meta_inclination": 74.0771,
        "meta_ra_of_asc_node": 320.6895,
        "meta_arg_of_pericenter": 33.7446,
        "meta_mean_anomaly": 351.8248,
        "meta_ephemeris_type": 0,
        "meta_classification_type": "U",
        "meta_norad_cat_id": 34474,
        "meta_element_set_no": 999,
        "meta_rev_at_epoch": 85553,
        "meta_bstar": 0.0016453419,
        "meta_mean_motion_dot": 3.228e-05,
        "meta_mean_motion_ddot": 0,
        "tle_line1": "1 34474U 93036TT  25349.88367580  .00003228  00000+0  16453-2 0  9996",
        "tle_line2": "2 34474  74.0771 320.6895 0198614  33.7446 351.8248 14.06436190855530"
      },
      "geometry": {
        "type": "Point",
        "coordinates": [
          -67.39891586350761,
          -57.7285591047657
        ]
      }
    },
    {
      "type": "Feature",
      "properties": {
        "norad_id": 34476,
        "name": "COSMOS 2251 DEB",
        "group": "cosmos-2251-debris",
        "lat": -59.814468392807065,
        "lon": 46.495876899609144,
        "alt_km": 728.5882231758806,
        "timestamp": "2025-12-16T13:52:37.916623+00:00",
        "meta_object_name": "COSMOS 2251 DEB",
        "meta_object_id": "1993-036TV",
        "meta_epoch": "2025-12-15T06:54:06.450624",
        "meta_mean_motion": 13.82056656,
        "meta_eccentricity": 0.03201,
        "meta_inclination": 74.0073,
        "meta_ra_of_asc_node": 78.2102,
        "meta_arg_of_pericenter": 297.2627,
        "meta_mean_anomaly": 59.6224,
        "meta_ephemeris_type": 0,
        "meta_classification_type": "U",
        "meta_norad_cat_id": 34476,
        "meta_element_set_no": 999,
        "meta_rev_at_epoch": 83673,
        "meta_bstar": 0.0025453408,
        "meta_mean_motion_dot": 4.024e-05,
        "meta_mean_motion_ddot": 0,
        "tle_line1": "1 34476U 93036TV  25349.28757466  .00004024  00000+0  25453-2 0  9993",
        "tle_line2": "2 34476  74.0073  78.2102 0320100 297.2627  59.6224 13.82056656836735"
      },
      "geometry": {
        "type": "Point",
        "coordinates": [
          46.495876899609144,
          -59.814468392807065
        ]
      }
    },
    {
      "type": "Feature",
      "properties": {
        "norad_id": 34477,
        "name": "COSMOS 2251 DEB",
        "group": "cosmos-2251-debris",
        "lat": 35.68404960985221,
        "lon": -129.72089160136284,
        "alt_km": 715.1159550573875,
        "timestamp": "2025-12-16T13:52:37.916633+00:00",
        "meta_object_name": "COSMOS 2251 DEB",
        "meta_object_id": "1993-036TW",
        "meta_epoch": "2025-12-15T23:12:52.948800",
        "meta_mean_motion": 14.56888227,
        "meta_eccentricity": 0.00768825,
        "meta_inclination": 73.9794,
        "meta_ra_of_asc_node": 63.3508,
        "meta_arg_of_pericenter": 249.9116,
        "meta_mean_anomaly": 290.546,
        "meta_ephemeris_type": 0,
        "meta_classification_type": "U",
        "meta_norad_cat_id": 34477,
        "meta_element_set_no": 999,
        "meta_rev_at_epoch": 88672,
        "meta_bstar": 0.00056794643,
        "meta_mean_motion_dot": 2.621e-05,
        "meta_mean_motion_ddot": 0,
        "tle_line1": "1 34477U 93036TW  25349.96727950  .00002621  00000+0  56795-3 0  9999",
        "tle_line2": "2 34477  73.9794  63.3508 0076882 249.9116 290.5460 14.56888227886722"
      },
      "geometry": {
        "type": "Point",
        "coordinates": [
          -129.72089160136284,
          35.68404960985221
        ]
      }
    },
    {
      "type": "Feature",
      "properties": {
        "norad_id": 34478,
        "name": "COSMOS 2251 DEB",
        "group": "cosmos-2251-debris",
        "lat": 9.274446041354258,
        "lon": 1.6655780780257827,
        "alt_km": 563.6893757966018,
        "timestamp": "2025-12-16T13:52:37.916643+00:00",
        "meta_object_name": "COSMOS 2251 DEB",
        "meta_object_id": "1993-036TX",
        "meta_epoch": "2025-12-15T11:26:14.049600",
        "meta_mean_motion": 15.08239924,
        "meta_eccentricity": 0.00347197,
        "meta_inclination": 74.041,
        "meta_ra_of_asc_node": 1.2533,
        "meta_arg_of_pericenter": 221.7563,
        "meta_mean_anomaly": 288.5873,
        "meta_ephemeris_type": 0,
        "meta_classification_type": "U",
        "meta_norad_cat_id": 34478,
        "meta_element_set_no": 999,
        "meta_rev_at_epoch": 89014,
        "meta_bstar": 0.0018086269,
        "meta_mean_motion_dot": 0.00028477,
        "meta_mean_motion_ddot": 0,
        "tle_line1": "1 34478U 93036TX  25349.47655150  .00028477  00000+0  18086-2 0  9995",
        "tle_line2": "2 34478  74.0410   1.2533 0034719 221.7563 288.5873 15.08239924890144"
      },
      "geometry": {
        "type": "Point",
        "coordinates": [
          1.6655780780257827,
          9.274446041354258
        ]
      }
    }
  ]
}